SL-14 R/B               
1 21423U 91042B   26007.98338306  .00000462  00000+0  55375-4 0  9993
2 21423  82.4937 277.1167 0018607  81.2650 279.0670 14.81768401844087
ERS-1                   
1 21574U 91050A   26007.94377425  .00000369  00000+0  13291-3 0  9996
2 21574  98.7897  24.6532 0032367  24.2916 335.9789 14.39390619806997
ARIANE 40 R/B           
1 21610U 91050F   26007.86168365  .00000348  00000+0  11675-3 0  9990
2 21610  98.2126  62.3449 0002047 249.8736 110.2235 14.42839219810220
INTERCOSMOS 25          
1 21819U 91086A   26007.97254184  .00001448  00000+0  28816-3 0  9994
2 21819  82.6086 346.7064 1485935 247.8145  95.8994 12.11835206489339
SL-8 R/B                
1 21876U 92008B   26007.93095240  .00000115  00000+0  10310-3 0  9994
2 21876  82.9285 312.9666 0033648 306.0124 118.1939 13.75965163701065
SL-8 R/B                
1 21938U 92020B   26007.96434692  .00000158  00000+0  14800-3 0  9993
2 21938  82.9291 198.8428 0030180 106.6939   2.0617 13.75535521692787
USA 81                  
1 21949U 92023A   26007.95188840  .00000220  00000+0  74053-4 0  9995
2 21949  85.0093 166.4593 0001347 114.8660 245.2672 14.32339458 86090
COSMOS 2219             
1 22219U 92076A   26007.82733350  .00000203  00000+0  13124-3 0  9994
2 22219  71.0611 145.2992 0020301 290.8727  69.0222 14.14079520709771
SL-16 R/B               
1 22220U 92076B   26007.98165093  .00000148  00000+0  97736-4 0  9996
2 22220  71.0012 316.2531 0013425 197.7243 228.9469 14.16845975713236
COSMOS 2221             
1 22236U 92080A   26007.97366444  .00002418  00000+0  21341-3 0  9990
2 22236  82.5056 337.2124 0015791  42.0655 318.1775 14.95897379771717
SL-16 R/B               
1 22285U 92093B   26007.60962074  .00000003  00000+0  25669-4 0  9995
2 22285  71.0213 132.4909 0003245   7.5418 352.5753 14.15433882704518
COSMOS 2228             
1 22286U 92094A   26007.89596887  .00001957  00000+0  16774-3 0  9998
2 22286  82.5194 295.5080 0018918 141.8954 218.3610 14.96880659766960
