CCSDS_OMM_VERS = 2.0
CREATION_DATE  = 
ORIGINATOR     = 

OBJECT_NAME    = SL-14 R/B
OBJECT_ID      = 1991-042B
CENTER_NAME    = EARTH
REF_FRAME      = TEME
TIME_SYSTEM    = UTC
MEAN_ELEMENT_THEORY = SGP/SGP4

EPOCH          = 2026-01-07T23:36:04.296384
MEAN_MOTION    = 14.81768401
ECCENTRICITY   = .00186075
INCLINATION    = 82.4937
RA_OF_ASC_NODE = 277.1167
ARG_OF_PERICENTER = 81.2650
MEAN_ANOMALY   = 279.0670

EPHEMERIS_TYPE = 0
CLASSIFICATION_TYPE = U
NORAD_CAT_ID   = 21423
ELEMENT_SET_NO = 999
REV_AT_EPOCH   = 84408
BSTAR          = .55375465E-4
MEAN_MOTION_DOT = .462E-5
MEAN_MOTION_DDOT = 0

CCSDS_OMM_VERS = 2.0
CREATION_DATE  = 
ORIGINATOR     = 

OBJECT_NAME    = ERS-1
OBJECT_ID      = 1991-050A
CENTER_NAME    = EARTH
REF_FRAME      = TEME
TIME_SYSTEM    = UTC
MEAN_ELEMENT_THEORY = SGP/SGP4

EPOCH          = 2026-01-07T22:39:02.095200
MEAN_MOTION    = 14.39390619
ECCENTRICITY   = .00323673
INCLINATION    = 98.7897
RA_OF_ASC_NODE = 24.6532
ARG_OF_PERICENTER = 24.2916
MEAN_ANOMALY   = 335.9789

EPHEMERIS_TYPE = 0
CLASSIFICATION_TYPE = U
NORAD_CAT_ID   = 21574
ELEMENT_SET_NO = 999
REV_AT_EPOCH   = 80699
BSTAR          = .13290735E-3
MEAN_MOTION_DOT = .369E-5
MEAN_MOTION_DDOT = 0

CCSDS_OMM_VERS = 2.0
CREATION_DATE  = 
ORIGINATOR     = 

OBJECT_NAME    = ARIANE 40 R/B
OBJECT_ID      = 1991-050F
CENTER_NAME    = EARTH
REF_FRAME      = TEME
TIME_SYSTEM    = UTC
MEAN_ELEMENT_THEORY = SGP/SGP4

EPOCH          = 2026-01-07T20:40:49.467360
MEAN_MOTION    = 14.42839219
ECCENTRICITY   = .00020473
INCLINATION    = 98.2126
RA_OF_ASC_NODE = 62.3449
ARG_OF_PERICENTER = 249.8736
MEAN_ANOMALY   = 110.2235

EPHEMERIS_TYPE = 0
CLASSIFICATION_TYPE = U
NORAD_CAT_ID   = 21610
ELEMENT_SET_NO = 999
REV_AT_EPOCH   = 81022
BSTAR          = .11674797E-3
MEAN_MOTION_DOT = .348E-5
MEAN_MOTION_DDOT = 0

CCSDS_OMM_VERS = 2.0
CREATION_DATE  = 
ORIGINATOR     = 

OBJECT_NAME    = INTERCOSMOS 25
OBJECT_ID      = 1991-086A
CENTER_NAME    = EARTH
REF_FRAME      = TEME
TIME_SYSTEM    = UTC
MEAN_ELEMENT_THEORY = SGP/SGP4

EPOCH          = 2026-01-07T23:20:27.614976
MEAN_MOTION    = 12.11835206
ECCENTRICITY   = .14859353
INCLINATION    = 82.6086
RA_OF_ASC_NODE = 346.7064
ARG_OF_PERICENTER = 247.8145
MEAN_ANOMALY   = 95.8994

EPHEMERIS_TYPE = 0
CLASSIFICATION_TYPE = U
NORAD_CAT_ID   = 21819
ELEMENT_SET_NO = 999
REV_AT_EPOCH   = 48933
BSTAR          = .28816481E-3
MEAN_MOTION_DOT = .1448E-4
MEAN_MOTION_DDOT = 0

CCSDS_OMM_VERS = 2.0
CREATION_DATE  = 
ORIGINATOR     = 

OBJECT_NAME    = SL-8 R/B
OBJECT_ID      = 1992-008B
CENTER_NAME    = EARTH
REF_FRAME      = TEME
TIME_SYSTEM    = UTC
MEAN_ELEMENT_THEORY = SGP/SGP4

EPOCH          = 2026-01-07T22:20:34.287360
MEAN_MOTION    = 13.75965163
ECCENTRICITY   = .00336487
INCLINATION    = 82.9285
RA_OF_ASC_NODE = 312.9666
ARG_OF_PERICENTER = 306.0124
MEAN_ANOMALY   = 118.1939

EPHEMERIS_TYPE = 0
CLASSIFICATION_TYPE = U
NORAD_CAT_ID   = 21876
ELEMENT_SET_NO = 999
REV_AT_EPOCH   = 70106
BSTAR          = .10309679E-3
MEAN_MOTION_DOT = .115E-5
MEAN_MOTION_DDOT = 0

CCSDS_OMM_VERS = 2.0
CREATION_DATE  = 
ORIGINATOR     = 

OBJECT_NAME    = SL-8 R/B
OBJECT_ID      = 1992-020B
CENTER_NAME    = EARTH
REF_FRAME      = TEME
TIME_SYSTEM    = UTC
MEAN_ELEMENT_THEORY = SGP/SGP4

EPOCH          = 2026-01-07T23:08:39.573888
MEAN_MOTION    = 13.75535521
ECCENTRICITY   = .00301801
INCLINATION    = 82.9291
RA_OF_ASC_NODE = 198.8428
ARG_OF_PERICENTER = 106.6939
MEAN_ANOMALY   = 2.0617

EPHEMERIS_TYPE = 0
CLASSIFICATION_TYPE = U
NORAD_CAT_ID   = 21938
ELEMENT_SET_NO = 999
REV_AT_EPOCH   = 69278
BSTAR          = .14799537E-3
MEAN_MOTION_DOT = .158E-5
MEAN_MOTION_DDOT = 0

CCSDS_OMM_VERS = 2.0
CREATION_DATE  = 
ORIGINATOR     = 

OBJECT_NAME    = USA 81
OBJECT_ID      = 1992-023A
CENTER_NAME    = EARTH
REF_FRAME      = TEME
TIME_SYSTEM    = UTC
MEAN_ELEMENT_THEORY = SGP/SGP4

EPOCH          = 2026-01-07T22:50:43.157760
MEAN_MOTION    = 14.32339458
ECCENTRICITY   = .00013472
INCLINATION    = 85.0093
RA_OF_ASC_NODE = 166.4593
ARG_OF_PERICENTER = 114.8660
MEAN_ANOMALY   = 245.2672

EPHEMERIS_TYPE = 0
CLASSIFICATION_TYPE = U
NORAD_CAT_ID   = 21949
ELEMENT_SET_NO = 999
REV_AT_EPOCH   = 8609
BSTAR          = .74052737E-4
MEAN_MOTION_DOT = .22E-5
MEAN_MOTION_DDOT = 0

CCSDS_OMM_VERS = 2.0
CREATION_DATE  = 
ORIGINATOR     = 

OBJECT_NAME    = COSMOS 2219
OBJECT_ID      = 1992-076A
CENTER_NAME    = EARTH
REF_FRAME      = TEME
TIME_SYSTEM    = UTC
MEAN_ELEMENT_THEORY = SGP/SGP4

EPOCH          = 2026-01-07T19:51:21.614400
MEAN_MOTION    = 14.14079520
ECCENTRICITY   = .00203018
INCLINATION    = 71.0611
RA_OF_ASC_NODE = 145.2992
ARG_OF_PERICENTER = 290.8727
MEAN_ANOMALY   = 69.0222

EPHEMERIS_TYPE = 0
CLASSIFICATION_TYPE = U
NORAD_CAT_ID   = 22219
ELEMENT_SET_NO = 999
REV_AT_EPOCH   = 70977
BSTAR          = .13123912E-3
MEAN_MOTION_DOT = .203E-5
MEAN_MOTION_DDOT = 0

CCSDS_OMM_VERS = 2.0
CREATION_DATE  = 
ORIGINATOR     = 

OBJECT_NAME    = SL-16 R/B
OBJECT_ID      = 1992-076B
CENTER_NAME    = EARTH
REF_FRAME      = TEME
TIME_SYSTEM    = UTC
MEAN_ELEMENT_THEORY = SGP/SGP4

EPOCH          = 2026-01-07T23:33:34.640352
MEAN_MOTION    = 14.16845975
ECCENTRICITY   = .00134259
INCLINATION    = 71.0012
RA_OF_ASC_NODE = 316.2531
ARG_OF_PERICENTER = 197.7243
MEAN_ANOMALY   = 228.9469

EPHEMERIS_TYPE = 0
CLASSIFICATION_TYPE = U
NORAD_CAT_ID   = 22220
ELEMENT_SET_NO = 999
REV_AT_EPOCH   = 71323
BSTAR          = .97735781E-4
MEAN_MOTION_DOT = .148E-5
MEAN_MOTION_DDOT = 0

CCSDS_OMM_VERS = 2.0
CREATION_DATE  = 
ORIGINATOR     = 

OBJECT_NAME    = COSMOS 2221
OBJECT_ID      = 1992-080A
CENTER_NAME    = EARTH
REF_FRAME      = TEME
TIME_SYSTEM    = UTC
MEAN_ELEMENT_THEORY = SGP/SGP4

EPOCH          = 2026-01-07T23:22:04.607616
MEAN_MOTION    = 14.95897379
ECCENTRICITY   = .00157914
INCLINATION    = 82.5056
RA_OF_ASC_NODE = 337.2124
ARG_OF_PERICENTER = 42.0655
MEAN_ANOMALY   = 318.1775

EPHEMERIS_TYPE = 0
CLASSIFICATION_TYPE = U
NORAD_CAT_ID   = 22236
ELEMENT_SET_NO = 999
REV_AT_EPOCH   = 77171
BSTAR          = .21341035E-3
MEAN_MOTION_DOT = .2418E-4
MEAN_MOTION_DDOT = 0

CCSDS_OMM_VERS = 2.0
CREATION_DATE  = 
ORIGINATOR     = 

OBJECT_NAME    = SL-16 R/B
OBJECT_ID      = 1992-093B
CENTER_NAME    = EARTH
REF_FRAME      = TEME
TIME_SYSTEM    = UTC
MEAN_ELEMENT_THEORY = SGP/SGP4

EPOCH          = 2026-01-07T14:37:51.231936
MEAN_MOTION    = 14.15433882
ECCENTRICITY   = .00032454
INCLINATION    = 71.0213
RA_OF_ASC_NODE = 132.4909
ARG_OF_PERICENTER = 7.5418
MEAN_ANOMALY   = 352.5753

EPHEMERIS_TYPE = 0
CLASSIFICATION_TYPE = U
NORAD_CAT_ID   = 22285
ELEMENT_SET_NO = 999
REV_AT_EPOCH   = 70451
BSTAR          = .25668747E-4
MEAN_MOTION_DOT = .3E-7
MEAN_MOTION_DDOT = 0

CCSDS_OMM_VERS = 2.0
CREATION_DATE  = 
ORIGINATOR     = 

OBJECT_NAME    = COSMOS 2228
OBJECT_ID      = 1992-094A
CENTER_NAME    = EARTH
REF_FRAME      = TEME
TIME_SYSTEM    = UTC
MEAN_ELEMENT_THEORY = SGP/SGP4

EPOCH          = 2026-01-07T21:30:11.710368
MEAN_MOTION    = 14.96880659
ECCENTRICITY   = .00189182
INCLINATION    = 82.5194
RA_OF_ASC_NODE = 295.5080
ARG_OF_PERICENTER = 141.8954
MEAN_ANOMALY   = 218.3610

EPHEMERIS_TYPE = 0
CLASSIFICATION_TYPE = U
NORAD_CAT_ID   = 22286
ELEMENT_SET_NO = 999
REV_AT_EPOCH   = 76696
BSTAR          = .16774272E-3
MEAN_MOTION_DOT = .1957E-4
MEAN_MOTION_DDOT = 0

